{
  "type" : "FeatureCollection",
  "features" : [{"type":"Feature","id":0,"geometry":{"type":"Polygon","coordinates":[[[-64.13341465042636,-18.489171398310404],[-64.135983751266579,-18.48845971968732],[-64.138539618966988,-18.487353994274436],[-64.14124877729796,-18.487548511993328],[-64.142105421151982,-18.489004406166618],[-64.141602445195957,-18.490125283737441],[-64.141620579090613,-18.494035097680246],[-64.141348654581662,-18.495793839486574],[-64.140481925037093,-18.496997153921892],[-64.139487907622126,-18.498046432026456],[-64.138158907056834,-18.499890693824291],[-64.138002953220365,-18.50012703867587],[-64.137725421023745,-18.500527137116382],[-64.137641385784875,-18.500624425778081],[-64.136991546017853,-18.501330576223239],[-64.135683423753619,-18.501996396728909],[-64.134802837398965,-18.502702930972688],[-64.134441659022102,-18.503017135455384],[-64.134151377962496,-18.503597588582622],[-64.134065733515286,-18.503652412754835],[-64.132682499861062,-18.504899003638368],[-64.132492110244868,-18.505057201992102],[-64.132055919069586,-18.505388117431625],[-64.131356940609066,-18.505166651035523],[-64.130620897277183,-18.503512174982788],[-64.128106518114691,-18.503635714577481],[-64.126861755698073,-18.504656062469653],[-64.124435408499238,-18.505078688920953],[-64.124261880237825,-18.504977152892831],[-64.124205228057662,-18.504932215339583],[-64.124202658900231,-18.504930423252642],[-64.124143920872882,-18.50489968579474],[-64.124180266974491,-18.504837567992428],[-64.123553980919013,-18.50438854625774],[-64.123259634036458,-18.504177478110112],[-64.122943211009741,-18.504226799434203],[-64.119579460064671,-18.504686644299252],[-64.117710955671015,-18.504198229076177],[-64.11766637490031,-18.503925943088113],[-64.11703279410969,-18.503751208237304],[-64.116842864501535,-18.503748805103157],[-64.11670201800365,-18.503749184600025],[-64.115575299487702,-18.500587171548819],[-64.114797975431657,-18.500869995289911],[-64.114774540484078,-18.500878537565079],[-64.114757401491886,-18.500747605045483],[-64.114663582438538,-18.500476782825832],[-64.113928009303947,-18.497812548432137],[-64.112089113285137,-18.495147384811673],[-64.111498486810561,-18.495179862160445],[-64.11202521060865,-18.49413943360037],[-64.112392608341963,-18.494197821472991],[-64.112780996576603,-18.494206563542946],[-64.112973998999877,-18.49385046322293],[-64.112877378786379,-18.493452779368223],[-64.112490709806877,-18.492947183788655],[-64.112449793207688,-18.492727106935654],[-64.112586423230866,-18.492471104595534],[-64.11278182261583,-18.492105049908538],[-64.112859989071055,-18.491669287520136],[-64.11320711900207,-18.490658196987848],[-64.116159270387314,-18.490693590175042],[-64.118225977997412,-18.48934665997049],[-64.119752602663183,-18.488961164613617],[-64.12039257376874,-18.489048921330181],[-64.120682421593116,-18.488805742937064],[-64.120962931636356,-18.488787093228314],[-64.121506007240242,-18.488830416631252],[-64.121923384744534,-18.488696729768812],[-64.123657980915084,-18.488616408368006],[-64.12429341857667,-18.48863351114921],[-64.124480030968101,-18.48871075182214],[-64.124531068838948,-18.48876701893575],[-64.12461208853486,-18.488657192692532],[-64.124629325182056,-18.48864254109694],[-64.126589350010704,-18.488695411343002],[-64.126694639100037,-18.488748734363213],[-64.126791118299991,-18.4889611569604],[-64.126893626809917,-18.489009255077633],[-64.127021595177041,-18.488967737538704],[-64.127048813382757,-18.488944260646264],[-64.128246318970639,-18.48960521684684],[-64.129259771887234,-18.489118780268768],[-64.131438235015423,-18.489305848397866],[-64.13341465042636,-18.489171398310404]]]},"properties":{"FID":0,"Id":1,"Nombre":"Area de Reserva Historica y de Agua Rio Yaguari","Titulacion":"Declarada como área protegida municipal por medio de la ley mun. N°022 del año 2018, de caracter privado bajo 15 propiedades tituladas.","X":381003.92716600001,"Y":7954565.6870600004,"AreaHa":459.056557725,"PerimKm":9.2816653073600008}},{"type":"Feature","id":1,"geometry":{"type":"Polygon","coordinates":[[[-64.110485520329149,-18.591759820447251],[-64.110762506536446,-18.59139731061963],[-64.11086812568324,-18.59101003373933],[-64.110709434179768,-18.590160329617021],[-64.110714601901165,-18.589567429146697],[-64.110847975411673,-18.5892916888291],[-64.111341261289851,-18.588936495560258],[-64.111997344318979,-18.58867485610309],[-64.113776009606667,-18.589222853490455],[-64.113529746585044,-18.589319855220971],[-64.113363764627138,-18.589513303675901],[-64.113233882551086,-18.589937500135104],[-64.113202211884314,-18.590388611799408],[-64.113262343647392,-18.590767693103579],[-64.114026584510526,-18.591230598467895],[-64.113969970350027,-18.591347969683429],[-64.113763818470588,-18.591617087190642],[-64.113646230134549,-18.591847155250623],[-64.113732077661979,-18.592057201073935],[-64.113939965771081,-18.592099964890412],[-64.114285182582989,-18.59197694412569],[-64.114477473390096,-18.591964092784558],[-64.114699921437378,-18.591903003202678],[-64.114997679535207,-18.591576796065958],[-64.115424201017504,-18.59154127742061],[-64.115667011285254,-18.591633324309651],[-64.115735340393755,-18.59181452362359],[-64.115485949204611,-18.592167806565687],[-64.115117558717714,-18.592274469416193],[-64.114889188797719,-18.592490458040242],[-64.114895518789425,-18.592715709383405],[-64.115132277444843,-18.59276380008464],[-64.115407756705565,-18.592558703804237],[-64.115758515757705,-18.592407200206072],[-64.115976550632453,-18.592230890613344],[-64.116227835187644,-18.592129731530051],[-64.11751584480912,-18.593428127123616],[-64.116847949742052,-18.5946436015494],[-64.118135591247523,-18.595881847575274],[-64.120435996767597,-18.597655377499791],[-64.121822862254049,-18.598901597747389],[-64.122355853269539,-18.599104637745455],[-64.12326589286134,-18.599090621190118],[-64.12475269998221,-18.600456514034175],[-64.125139737445693,-18.600645111779016],[-64.125479615168658,-18.601371545493766],[-64.12574276678474,-18.601495564384329],[-64.125815901548165,-18.601807741728404],[-64.125528171247851,-18.601903976335702],[-64.125240892273908,-18.602068946015304],[-64.125209786036237,-18.602387539442159],[-64.125714179295301,-18.604154040056692],[-64.12622809496284,-18.60419392888608],[-64.126294620422939,-18.604717659499574],[-64.126223718202297,-18.604898521178306],[-64.126282758989291,-18.605654287762704],[-64.12635824012763,-18.60616937241026],[-64.12650581171718,-18.606684025734634],[-64.126535559341391,-18.60709627659039],[-64.126386194028612,-18.607595183399209],[-64.126596334889769,-18.607901303950865],[-64.12680904985433,-18.608211172869446],[-64.126967969104555,-18.608442674852995],[-64.126915994012052,-18.608760899711587],[-64.126649116199147,-18.609048456670088],[-64.126725980542943,-18.609317633923428],[-64.127367792737772,-18.610313394727942],[-64.126501393879721,-18.614228059877],[-64.125644758653891,-18.616064480270833],[-64.125578268603519,-18.617089106674463],[-64.124539331250588,-18.617358782869228],[-64.123632636559506,-18.619702055682488],[-64.124446211233419,-18.619644880822516],[-64.124848401860575,-18.620148675402032],[-64.124974553390459,-18.620500949254417],[-64.124628880648331,-18.620956496064057],[-64.124007527291184,-18.621460468417627],[-64.123910789595826,-18.621951031934959],[-64.124141827155668,-18.622696951540586],[-64.123628439775416,-18.624117740613663],[-64.121818610720027,-18.624375030156465],[-64.120734683951255,-18.624435191195278],[-64.114833904917987,-18.626537762857758],[-64.112939173470991,-18.625354116454087],[-64.110442708205412,-18.62475129618511],[-64.108896427681813,-18.625176604756238],[-64.108561497535192,-18.623473545113644],[-64.109696157791703,-18.620544269399709],[-64.110984040583901,-18.61920338830728],[-64.109271775364633,-18.617911218185974],[-64.106053392340087,-18.616708440294381],[-64.10576543905033,-18.615730072093459],[-64.104734325808835,-18.615239383547426],[-64.10337312642443,-18.613783988732788],[-64.101234836961979,-18.611916939379022],[-64.098514449015667,-18.60929820932548],[-64.098168981657466,-18.608827646314502],[-64.100326092563307,-18.607938635829047],[-64.101162880027218,-18.607736120750928],[-64.102127705121561,-18.607824991682357],[-64.102703104642842,-18.60761540726276],[-64.105399331028238,-18.607883145278773],[-64.106860505351364,-18.60808077743188],[-64.107275083953922,-18.608025439717135],[-64.107885904843613,-18.60768438669179],[-64.108063690965679,-18.60740350086871],[-64.107545306994339,-18.605750846699316],[-64.107539862394958,-18.605665436503223],[-64.107637726839869,-18.605637365521279],[-64.107943834937146,-18.605742640814572],[-64.108070515526066,-18.605673313055153],[-64.108121459310524,-18.605524538157027],[-64.108021922391018,-18.605294162489933],[-64.108049441534419,-18.605090534632332],[-64.108105796468024,-18.604886737103062],[-64.107785720307461,-18.60444319464774],[-64.107807543665231,-18.604250598465054],[-64.107321929656266,-18.604071984640488],[-64.106676487199465,-18.603313124469292],[-64.106654688924607,-18.602728975001671],[-64.106795645343325,-18.602229792344218],[-64.107212665562244,-18.601222040289361],[-64.106264478114966,-18.600024956473561],[-64.105318051004176,-18.599480333973506],[-64.105383500832971,-18.59902611515437],[-64.105213663559695,-18.598664675702636],[-64.104976110194386,-18.598159122092703],[-64.104956591907523,-18.59792724379507],[-64.105161402039712,-18.597547980096714],[-64.105188053971276,-18.596930207394553],[-64.105100450605576,-18.59676024953653],[-64.104776085523781,-18.596542188352995],[-64.104067916904995,-18.595831457976271],[-64.104809808001718,-18.594617309184972],[-64.105125316372636,-18.594357001652153],[-64.105821042795199,-18.594033972563341],[-64.106277002934021,-18.594024983682338],[-64.106815858264085,-18.593588204442156],[-64.106420840026814,-18.593145098212478],[-64.106203244351661,-18.592491984155664],[-64.106105260931486,-18.591607205883015],[-64.106273330244207,-18.591604315665723],[-64.106463898670199,-18.59177557220001],[-64.107096167375488,-18.592343763831526],[-64.1080271029589,-18.592723228154508],[-64.108777920283174,-18.592894782392431],[-64.109422835032092,-18.592993728214076],[-64.109618275019443,-18.592653342693222],[-64.109724190672793,-18.592468875648368],[-64.109902397813173,-18.592158502591236],[-64.110485520329149,-18.591759820447251]]]},"properties":{"FID":1,"Id":0,"Nombre":"Microcuencas de Huerta Mayu, Palamarito y Tacazo","Titulacion":"Propiedad privada titulada de la Cooperativa de Servicios Públicos de Agua Potable y Alcantarillado Montes Claros R.L. (COSMON R.L.)","X":382380.03389600001,"Y":7942082.6475400003,"AreaHa":710.29416388699997,"PerimKm":14.2497229458}}]
}